{
    "links": {
        "self": "http://www.neowsapp.com/rest/v1/neo/3838864?api_key=iIulBulltgU6a56xZRHN4H3l9WmuAYTsLGpBGhQ2"
    },
    "id": "3838864",
    "neo_reference_id": "3838864",
    "name": "(2019 DP1)",
    "designation": "2019 DP1",
    "nasa_jpl_url": "http://ssd.jpl.nasa.gov/sbdb.cgi?sstr=3838864",
    "absolute_magnitude_h": 25.1,
    "estimated_diameter": {
        "kilometers": {
            "estimated_diameter_min": 0.0253837029,
            "estimated_diameter_max": 0.0567596853
        },
        "meters": {
            "estimated_diameter_min": 25.3837029364,
            "estimated_diameter_max": 56.7596852866
        },
        "miles": {
            "estimated_diameter_min": 0.0157726969,
            "estimated_diameter_max": 0.0352688224
        },
        "feet": {
            "estimated_diameter_min": 83.279867942,
            "estimated_diameter_max": 186.2194458756
        }
    },
    "is_potentially_hazardous_asteroid": false,
    "close_approach_data": [
        {
            "close_approach_date": "2019-03-18",
            "close_approach_date_full": "2019-Mar-18 07:57",
            "epoch_date_close_approach": 1552895820000,
            "relative_velocity": {
                "kilometers_per_second": "8.7704138703",
                "kilometers_per_hour": "31573.4899329198",
                "miles_per_hour": "19618.5387863745"
            },
            "miss_distance": {
                "astronomical": "0.0570039751",
                "lunar": "22.1745463139",
                "kilometers": "8527673.256493037",
                "miles": "5298850.4506244306"
            },
            "orbiting_body": "Earth"
        }
    ],
    "orbital_data": {
        "orbit_id": "9",
        "orbit_determination_date": "2019-03-18 07:01:01",
        "first_observation_date": "2019-02-28",
        "last_observation_date": "2019-03-18",
        "data_arc_in_days": 18,
        "observations_used": 55,
        "orbit_uncertainty": "8",
        "minimum_orbit_intersection": ".0403315",
        "jupiter_tisserand_invariant": "3.224",
        "epoch_osculation": "2458549.5",
        "eccentricity": ".58354090561199",
        "semi_major_axis": "2.466012645264225",
        "inclination": "4.862740473040308",
        "ascending_node_longitude": "170.6184267595275",
        "orbital_period": "1414.462297229991",
        "perihelion_distance": "1.02699339299612",
        "perihelion_argument": "23.95382269117678",
        "aphelion_distance": "3.905031897532329",
        "perihelion_time": "2458574.049572426744",
        "mean_anomaly": "353.751798057159",
        "mean_motion": ".2545136768261728",
        "equinox": "J2000",
        "orbit_class": {
            "orbit_class_type": "AMO",
            "orbit_class_description": "Near-Earth asteroid orbits similar to that of 1221 Amor",
            "orbit_class_range": "1.017 AU < q (perihelion) < 1.3 AU"
        }
    },
    "is_sentry_object": false
}